[{"OBJECT_NAME":"SILVERSAT","OBJECT_ID":"1998-067XV","EPOCH":"2026-03-09T06:21:04.624704","MEAN_MOTION":15.72057374,"ECCENTRICITY":0.00055278,"INCLINATION":51.6252,"RA_OF_ASC_NODE":67.052,"ARG_OF_PERICENTER":73.9744,"MEAN_ANOMALY":286.1863,"EPHEMERIS_TYPE":0,"CLASSIFICATION_TYPE":"U","NORAD_CAT_ID":66909,"ELEMENT_SET_NO":999,"REV_AT_EPOCH":1512,"BSTAR":0.0015444738,"MEAN_MOTION_DOT":0.00211631,"MEAN_MOTION_DDOT":0},{"OBJECT_NAME":"STARLINK-36702","OBJECT_ID":"2026-025X","EPOCH":"2026-03-09T22:00:01.999584","MEAN_MOTION":15.75237913,"ECCENTRICITY":0.000144,"INCLINATION":97.2852,"RA_OF_ASC_NODE":180.6414,"ARG_OF_PERICENTER":87.5227,"MEAN_ANOMALY":304.2178,"EPHEMERIS_TYPE":0,"CLASSIFICATION_TYPE":"U","NORAD_CAT_ID":67714,"ELEMENT_SET_NO":999,"REV_AT_EPOCH":569,"BSTAR":-0.00030627167,"MEAN_MOTION_DOT":-0.00045664,"MEAN_MOTION_DDOT":0}]
